[{"OBJECT_ID":"2013-071A","OBJECT_NAME":"SES 8","NORAD_CAT_ID":"39460","OBJECT_TYPE":"PAYLOAD","PERIOD":"1436.102","INCLINATION":"0.0514","APOGEE":"35795.438","PERIGEE":"35777.991","ECCENTRICITY":"0.0002069","MEAN_MOTION":"1.00271364","TLE_LINE1":"1 39460U 13071A   16238.80706024 -.00000297  00000-0  00000+0 0  9999","TLE_LINE2":"2 39460   0.0514 282.3840 0002069 220.5348 217.0890  1.00271364  9956","LAUNCH_DATE":"2013-12-03","LAUNCH_SITE":"AIR FORCE EASTERN TEST RANGE","OWNER":"SOCIÉTÉ EUROPÉENNE DES SATELLITES","ORBIT_TYPE":"Geosynchronous","OPERATIONAL_STATUS":"Operational","satInfo":{"lng":55.18418127751815,"lat":2.212548905460492,"elevation":-6.404854997703696,"azimuth":259.8158187224818,"range":42406.65720653636,"height":35795.246895821714,"velocity":3.074087587632696},"x":294,"y":-204},{"OBJECT_ID":"2013-073A","OBJECT_NAME":"INMARSAT 5-F1","NORAD_CAT_ID":"39476","OBJECT_TYPE":"PAYLOAD","PERIOD":"1436.092","INCLINATION":"0.0172","APOGEE":"35788.541","PERIGEE":"35784.460","ECCENTRICITY":"4.84e-05","MEAN_MOTION":"1.00272127","TLE_LINE1":"1 39476U 13073A   16239.03591009 -.00000000  00000-0  00000+0 0  9991","TLE_LINE2":"2 39476   0.0172 126.3004 0000484 193.2907  90.6671  1.00272127 10017","LAUNCH_DATE":"2013-12-08","LAUNCH_SITE":"TYURATAM MISSILE AND SPACE COMPLEX","OWNER":"INTERNATIONAL MARITIME SATELLITE ORGANIZATION (INMARSAT)","ORBIT_TYPE":"Geosynchronous","OPERATIONAL_STATUS":"Operational","satInfo":{"lng":87.7520231430395,"lat":-1.971161958453999,"elevation":-10.494700482624092,"azimuth":227.24797685696052,"range":42855.7321386172,"height":35785.61860981521,"velocity":3.074779926982654},"x":358,"y":-14},{"OBJECT_ID":"2013-075A","OBJECT_NAME":"TKSAT 1","NORAD_CAT_ID":"39481","OBJECT_TYPE":"PAYLOAD","PERIOD":"1436.103","INCLINATION":"0.0075","APOGEE":"35793.995","PERIGEE":"35779.448","ECCENTRICITY":"0.0001725","MEAN_MOTION":"1.00271339","TLE_LINE1":"1 39481U 13075A   16238.14108269 -.00000221  00000-0  00000+0 0  9997","TLE_LINE2":"2 39481   0.0075 303.2512 0001725 232.6136 121.5725  1.00271339  9911","LAUNCH_DATE":"2013-12-20","LAUNCH_SITE":"Xichang Space Center, China","OWNER":"BOLIVIA","ORBIT_TYPE":"Geosynchronous","OPERATIONAL_STATUS":"Operational","satInfo":{"lng":-102.32902454153793,"lat":-1.9899948999844594,"elevation":-10.51248861728444,"azimuth":57.32902454153788,"range":42860.365405530225,"height":35788.228703902394,"velocity":3.0748884451185465},"x":-350,"y":76},{"OBJECT_ID":"2013-077A","OBJECT_NAME":"EXPRESS AM-5","NORAD_CAT_ID":"39487","OBJECT_TYPE":"PAYLOAD","PERIOD":"1436.112","INCLINATION":"0.0344","APOGEE":"35791.801","PERIGEE":"35781.994","ECCENTRICITY":"0.0001163","MEAN_MOTION":"1.00270711","TLE_LINE1":"1 39487U 13077A   16238.25615414 -.00000306  00000-0  00000+0 0  9996","TLE_LINE2":"2 39487   0.0344 282.7223 0001163  33.4729 249.9775  1.00270711 10440","LAUNCH_DATE":"2013-12-26","LAUNCH_SITE":"TYURATAM MISSILE AND SPACE COMPLEX","OWNER":"COMMONWEALTH OF INDEPENDENT STATES","ORBIT_TYPE":"Geosynchronous","OPERATIONAL_STATUS":"Operational","satInfo":{"lng":123.12732843085742,"lat":1.2211026863812235,"elevation":-7.383334798517117,"azimuth":191.87267156914254,"range":42487.178144702826,"height":35766.323417571024,"velocity":3.0754793764180612},"x":300,"y":195},{"OBJECT_ID":"2013-077B","OBJECT_NAME":"BREEZE-M R/B","NORAD_CAT_ID":"39488","OBJECT_TYPE":"ROCKET BODY","PERIOD":"1607.749","INCLINATION":"1.6662","APOGEE":"41361.682","PERIGEE":"36804.070","ECCENTRICITY":"0.0501266","MEAN_MOTION":"0.89566194","TLE_LINE1":"1 39488U 13077B   16238.24383049 -.00000205 +00000-0 +00000-0 0  9991","TLE_LINE2":"2 39488 001.6662 068.0956 0501266 117.5482 248.2965 00.89566194008582","LAUNCH_DATE":"2013-12-26","LAUNCH_SITE":"TYURATAM MISSILE AND SPACE COMPLEX","OWNER":"COMMONWEALTH OF INDEPENDENT STATES","ORBIT_TYPE":"Unclassified","OPERATIONAL_STATUS":"N/A, derelict rocket body","satInfo":{"lng":-50.70309681217131,"lat":-0.3517315135726227,"elevation":-8.653948899881774,"azimuth":5.703096812171308,"range":44023.42599756072,"height":37144.907853280754,"velocity":3.0901437282474418},"x":-287,"y":-235},{"OBJECT_ID":"2014-001A","OBJECT_NAME":"GSAT 14","NORAD_CAT_ID":"39498","OBJECT_TYPE":"PAYLOAD","PERIOD":"1436.119","INCLINATION":"0.09","APOGEE":"35792.536","PERIGEE":"35781.556","ECCENTRICITY":"0.0001302","MEAN_MOTION":"1.00270182","TLE_LINE1":"1 39498U 14001A   16238.58906284  .00000000  00000-0  10000-3 0  9995","TLE_LINE2":"2 39498   0.0900 268.5598 0001302 289.6929  62.1492  1.00270182999460","LAUNCH_DATE":"2014-01-05","LAUNCH_SITE":"SIRHARIKOTA","OWNER":"INDIA","ORBIT_TYPE":"Geosynchronous","OPERATIONAL_STATUS":"Operational","satInfo":{"lng":76.5413502354171,"lat":2.0209314583038,"elevation":-6.594048239847512,"azimuth":238.4586497645829,"range":42422.79173345909,"height":35790.216955051124,"velocity":3.074403178357302},"x":348,"y":-83},{"OBJECT_ID":"2014-002A","OBJECT_NAME":"THAICOM 6","NORAD_CAT_ID":"39500","OBJECT_TYPE":"PAYLOAD","PERIOD":"1436.085","INCLINATION":"0.0386","APOGEE":"35804.993","PERIGEE":"35767.737","ECCENTRICITY":"0.0004418","MEAN_MOTION":"1.0027261","TLE_LINE1":"1 39500U 14002A   16238.92584662 -.00000149  00000-0  00000+0 0  9990","TLE_LINE2":"2 39500   0.0386 141.8980 0004418  22.0097 222.4842  1.00272610  9602","LAUNCH_DATE":"2014-01-06","LAUNCH_SITE":"AIR FORCE EASTERN TEST RANGE","OWNER":"THAILAND","ORBIT_TYPE":"Geosynchronous","OPERATIONAL_STATUS":"Operational","satInfo":{"lng":72.09485234304923,"lat":-1.3251703342214758,"elevation":-9.862618318599901,"azimuth":242.90514765695076,"range":42803.55012078545,"height":35804.10219953307,"velocity":3.073389490706565},"x":341,"y":-110},{"OBJECT_ID":"2014-006A","OBJECT_NAME":"ABS 2","NORAD_CAT_ID":"39508","OBJECT_TYPE":"PAYLOAD","PERIOD":"1436.089","INCLINATION":"0.0093","APOGEE":"35798.740","PERIGEE":"35774.158","ECCENTRICITY":"0.0002915","MEAN_MOTION":"1.00272312","TLE_LINE1":"1 39508U 14006A   16238.86262320 -.00000114 +00000-0 +00000-0 0  9992","TLE_LINE2":"2 39508 000.0093 274.6408 0002915 241.2079 204.1584 01.00272312009418","LAUNCH_DATE":"2014-02-06","LAUNCH_SITE":"FRENCH GUIANA","OWNER":"PEOPLES REPUBLIC OF CHINA","ORBIT_TYPE":"Geosynchronous","OPERATIONAL_STATUS":"Partially operational","satInfo":{"lng":75.46803236627196,"lat":2.2066778295014973,"elevation":-6.410124944021327,"azimuth":239.53196763372804,"range":42409.731776770495,"height":35797.70232798223,"velocity":3.0738740959130277},"x":347,"y":-90},{"OBJECT_ID":"2014-006B","OBJECT_NAME":"ATHENA-FIDUS","NORAD_CAT_ID":"39509","OBJECT_TYPE":"PAYLOAD","PERIOD":"1436.081","INCLINATION":"0.0189","APOGEE":"35790.027","PERIGEE":"35782.572","ECCENTRICITY":"8.84e-05","MEAN_MOTION":"1.00272845","TLE_LINE1":"1 39509U 14006B   16238.96537634  .00000126  00000-0  00000+0 0  9998","TLE_LINE2":"2 39509   0.0189 122.1982 0000884  88.7274 149.0691  1.00272845  9588","LAUNCH_DATE":"2014-02-06","LAUNCH_SITE":"FRENCH GUIANA","OWNER":"FRANCE/ITALY","ORBIT_TYPE":"Geosynchronous","OPERATIONAL_STATUS":"Operational","satInfo":{"lng":96.78164612689663,"lat":-2.0182838796109763,"elevation":-10.543105573893946,"azimuth":218.21835387310335,"range":42847.865117386355,"height":35772.47232555178,"velocity":3.07507531715485},"x":355,"y":42},{"OBJECT_ID":"2014-007A","OBJECT_NAME":"TURKSAT 4A","NORAD_CAT_ID":"39522","OBJECT_TYPE":"PAYLOAD","PERIOD":"1436.043","INCLINATION":"0.0737","APOGEE":"35797.748","PERIGEE":"35773.335","ECCENTRICITY":"0.0002895","MEAN_MOTION":"1.00275548","TLE_LINE1":"1 39522U 14007A   16238.95371296  .00000118  00000-0  00000+0 0  9994","TLE_LINE2":"2 39522   0.0737 277.3546 0002895 288.9312 153.6927  1.00275548  9296","LAUNCH_DATE":"2014-02-14","LAUNCH_SITE":"TYURATAM MISSILE AND SPACE COMPLEX","OWNER":"TURKEY","ORBIT_TYPE":"Geosynchronous","OPERATIONAL_STATUS":"Operational","satInfo":{"lng":101.00495127796795,"lat":1.70673933530575,"elevation":-6.9031882295617075,"azimuth":213.995048722032,"range":42453.50961892701,"height":35786.29923922791,"velocity":3.074274935307664},"x":351,"y":68},{"OBJECT_ID":"2014-010A","OBJECT_NAME":"EXPRESS AT1","NORAD_CAT_ID":"39612","OBJECT_TYPE":"PAYLOAD","PERIOD":"1436.100","INCLINATION":"0.0442","APOGEE":"35787.289","PERIGEE":"35786.058","ECCENTRICITY":"1.46e-05","MEAN_MOTION":"1.0027151","TLE_LINE1":"1 39612U 14010A   16238.93795844 +.00000051 +00000-0 +00000-0 0  9992","TLE_LINE2":"2 39612 000.0442 286.0623 0000146 242.9367 199.2780 01.00271510009130","LAUNCH_DATE":"2014-03-15","LAUNCH_SITE":"TYURATAM MISSILE AND SPACE COMPLEX","OWNER":"COMMONWEALTH OF INDEPENDENT STATES","ORBIT_TYPE":"Geosynchronous","OPERATIONAL_STATUS":"Operational","satInfo":{"lng":94.05469727525602,"lat":2.0199178919247434,"elevation":-6.596052048474223,"azimuth":220.94530272474398,"range":42417.97427543913,"height":35785.2316150264,"velocity":3.074735544690137},"x":357,"y":25},{"OBJECT_ID":"2014-010B","OBJECT_NAME":"EXPRESS AT2","NORAD_CAT_ID":"39613","OBJECT_TYPE":"PAYLOAD","PERIOD":"1436.111","INCLINATION":"0.0444","APOGEE":"35790.045","PERIGEE":"35783.737","ECCENTRICITY":"7.48e-05","MEAN_MOTION":"1.00270734","TLE_LINE1":"1 39613U 14010B   16238.85035899 -.00000309 +00000-0 +00000-0 0  9998","TLE_LINE2":"2 39613 000.0444 285.1424 0000748 347.2377 148.1129 01.00270734008967","LAUNCH_DATE":"2014-03-15","LAUNCH_SITE":"TYURATAM MISSILE AND SPACE COMPLEX","OWNER":"COMMONWEALTH OF INDEPENDENT STATES","ORBIT_TYPE":"Geosynchronous","OPERATIONAL_STATUS":"Operational","satInfo":{"lng":124.56086424284369,"lat":1.2384850760425703,"elevation":-7.365531100431498,"azimuth":190.43913575715627,"range":42489.0527550399,"height":35770.152128134374,"velocity":3.0752367103089937},"x":295,"y":203}]